[{"OBJECT_NAME":"ARVAKER-3","OBJECT_ID":"2025-135AQ","EPOCH":"2026-03-09T22:14:44.749248","MEAN_MOTION":14.93138697,"ECCENTRICITY":4.474e-5,"INCLINATION":97.7597,"RA_OF_ASC_NODE":184.2656,"ARG_OF_PERICENTER":240.4177,"MEAN_ANOMALY":119.6998,"EPHEMERIS_TYPE":0,"CLASSIFICATION_TYPE":"U","NORAD_CAT_ID":64566,"ELEMENT_SET_NO":999,"REV_AT_EPOCH":3906,"BSTAR":0.00046258382,"MEAN_MOTION_DOT":4.77e-5,"MEAN_MOTION_DDOT":0},{"OBJECT_NAME":"AISSAT 2","OBJECT_ID":"2014-037G","EPOCH":"2026-03-09T20:52:41.535552","MEAN_MOTION":14.93076094,"ECCENTRICITY":0.00035743,"INCLINATION":98.3947,"RA_OF_ASC_NODE":35.1738,"ARG_OF_PERICENTER":210.113,"MEAN_ANOMALY":149.9883,"EPHEMERIS_TYPE":0,"CLASSIFICATION_TYPE":"U","NORAD_CAT_ID":40075,"ELEMENT_SET_NO":999,"REV_AT_EPOCH":63192,"BSTAR":0.00031770264,"MEAN_MOTION_DOT":3.245e-5,"MEAN_MOTION_DDOT":0}]
